{
    "links": {
        "self": "http://www.neowsapp.com/rest/v1/neo/3698525?api_key=iIulBulltgU6a56xZRHN4H3l9WmuAYTsLGpBGhQ2"
    },
    "id": "3698525",
    "neo_reference_id": "3698525",
    "name": "(2014 HW197)",
    "designation": "2014 HW197",
    "nasa_jpl_url": "http://ssd.jpl.nasa.gov/sbdb.cgi?sstr=3698525",
    "absolute_magnitude_h": 25.3,
    "estimated_diameter": {
        "kilometers": {
            "estimated_diameter_min": 0.0231502122,
            "estimated_diameter_max": 0.0517654482
        },
        "meters": {
            "estimated_diameter_min": 23.150212221,
            "estimated_diameter_max": 51.7654482198
        },
        "miles": {
            "estimated_diameter_min": 0.0143848705,
            "estimated_diameter_max": 0.0321655483
        },
        "feet": {
            "estimated_diameter_min": 75.9521422633,
            "estimated_diameter_max": 169.8341531374
        }
    },
    "is_potentially_hazardous_asteroid": false,
    "close_approach_data": [
        {
            "close_approach_date": "2014-05-17",
            "close_approach_date_full": "2014-May-17 05:49",
            "epoch_date_close_approach": 1400305740000,
            "relative_velocity": {
                "kilometers_per_second": "7.7632403018",
                "kilometers_per_hour": "27947.6650864634",
                "miles_per_hour": "17365.5922310861"
            },
            "miss_distance": {
                "astronomical": "0.2753541681",
                "lunar": "107.1127713909",
                "kilometers": "41192397.043381947",
                "miles": "25595768.6311949886"
            },
            "orbiting_body": "Earth"
        }
    ],
    "orbital_data": {
        "orbit_id": "3",
        "orbit_determination_date": "2017-04-06 08:40:55",
        "first_observation_date": "2014-04-24",
        "last_observation_date": "2014-04-26",
        "data_arc_in_days": 2,
        "observations_used": 24,
        "orbit_uncertainty": "9",
        "minimum_orbit_intersection": ".268687",
        "jupiter_tisserand_invariant": "3.006",
        "epoch_osculation": "2456772.5",
        "eccentricity": ".5608424274124079",
        "semi_major_axis": "2.880711487928314",
        "inclination": "13.1967526710887",
        "ascending_node_longitude": "219.2687223289801",
        "orbital_period": "1785.86272918921",
        "perihelion_distance": "1.265086264363789",
        "perihelion_argument": "24.71325363235508",
        "aphelion_distance": "4.496336711492838",
        "perihelion_time": "2456806.920456734304",
        "mean_anomaly": "353.0614127156485",
        "mean_motion": ".20158324271846",
        "equinox": "J2000",
        "orbit_class": {
            "orbit_class_type": "AMO",
            "orbit_class_description": "Near-Earth asteroid orbits similar to that of 1221 Amor",
            "orbit_class_range": "1.017 AU < q (perihelion) < 1.3 AU"
        }
    },
    "is_sentry_object": false
}